TEVEL2-8                
1 63239U 25052AF  26068.66815442  .00019130  00000+0  69304-3 0  9993
2 63239  97.4055 324.2923 0008031 124.9191 235.2804 15.28392908 54807
STARLINK-34043          
1 63823U 25092V   26068.31410749  .00035818  00000+0  13040-2 0  9995
2 63823  42.9973 170.6146 0002465 292.0007  68.0583 15.27600198 48607
